ONEWEB-0369             
1 49295U 21090S   23319.95961403  .00000001  00000+0 -29103-4 0  9996
2 49295  87.9171 132.9122 0001475  82.8916 277.2384 13.19727116103167
ONEWEB-0370             
1 49296U 21090T   23319.63633670  .00000046  00000+0  81717-4 0  9991
2 49296  87.9163 102.4754 0001618  96.1296 264.0022 13.20770177105184
ONEWEB-0371             
1 49297U 21090U   23319.74007791 -.00000320  00000+0 -83081-3 0  9995
2 49297  87.9149 132.9434 0001789  92.3190 267.8148 13.19726088101885
ONEWEB-0372             
1 49298U 21090V   23319.70158577  .00017501  00000+0  42983-1 0  9992
2 49298  87.9172 102.4648 0001958  90.8565 269.2792 13.20685033105160
ONEWEB-0373             
1 49299U 21090W   23319.95619725  .00000151  00000+0  33963-3 0  9990
2 49299  87.9243 102.4098 0001709  82.5125 277.6203 13.20772036107682
ONEWEB-0374             
1 49300U 21090X   23319.72538163  .00000137  00000+0  33441-3 0  9999
2 49300  87.8940 117.7088 0001573  88.1111 272.0199 13.14505761103481
ONEWEB-0375             
1 49301U 21090Y   23319.64055654 -.00000032  00000+0 -11099-3 0  9991
2 49301  87.9162 102.4757 0002311  92.8948 267.2450 13.20772155105842
ONEWEB-0376             
1 49302U 21090Z   23319.89013681 -.00001008  00000+0 -25507-2 0  9995
2 49302  87.9171 132.9348 0002270  98.9152 261.2238 13.19723963101907
